CCSDS_OMM_VERS = 2.0
CREATION_DATE  = 
ORIGINATOR     = 

OBJECT_NAME    = SDA_1668
OBJECT_ID      = 2025-230E
CENTER_NAME    = EARTH
REF_FRAME      = TEME
TIME_SYSTEM    = UTC
MEAN_ELEMENT_THEORY = SGP/SGP4

EPOCH          = 2025-11-04T19:02:44.172384
MEAN_MOTION    = 13.85467907
ECCENTRICITY   = .0004972
INCLINATION    = 81.3014
RA_OF_ASC_NODE = 59.7793
ARG_OF_PERICENTER = 107.2107
MEAN_ANOMALY   = 252.9595

EPHEMERIS_TYPE = 0
CLASSIFICATION_TYPE = U
NORAD_CAT_ID   = 65978
ELEMENT_SET_NO = 999
REV_AT_EPOCH   = 275
BSTAR          = .1643E-3
MEAN_MOTION_DOT = .199E-5
MEAN_MOTION_DDOT = 0

CCSDS_OMM_VERS = 2.0
CREATION_DATE  = 
ORIGINATOR     = 

OBJECT_NAME    = SDA_1669
OBJECT_ID      = 2025-230F
CENTER_NAME    = EARTH
REF_FRAME      = TEME
TIME_SYSTEM    = UTC
MEAN_ELEMENT_THEORY = SGP/SGP4

EPOCH          = 2025-11-04T19:07:31.126656
MEAN_MOTION    = 13.85234758
ECCENTRICITY   = .000508
INCLINATION    = 81.3016
RA_OF_ASC_NODE = 59.7843
ARG_OF_PERICENTER = 94.6631
MEAN_ANOMALY   = 265.5107

EPHEMERIS_TYPE = 0
CLASSIFICATION_TYPE = U
NORAD_CAT_ID   = 65979
ELEMENT_SET_NO = 999
REV_AT_EPOCH   = 275
BSTAR          = .15501E-3
MEAN_MOTION_DOT = .188E-5
MEAN_MOTION_DDOT = 0

CCSDS_OMM_VERS = 2.0
CREATION_DATE  = 
ORIGINATOR     = 

OBJECT_NAME    = SDA_1670
OBJECT_ID      = 2025-230G
CENTER_NAME    = EARTH
REF_FRAME      = TEME
TIME_SYSTEM    = UTC
MEAN_ELEMENT_THEORY = SGP/SGP4

EPOCH          = 2025-11-04T19:16:13.181376
MEAN_MOTION    = 13.84811538
ECCENTRICITY   = .0003641
INCLINATION    = 81.2994
RA_OF_ASC_NODE = 59.7887
ARG_OF_PERICENTER = 69.5437
MEAN_ANOMALY   = 290.6111

EPHEMERIS_TYPE = 0
CLASSIFICATION_TYPE = U
NORAD_CAT_ID   = 65980
ELEMENT_SET_NO = 999
REV_AT_EPOCH   = 275
BSTAR          = .14989E-3
MEAN_MOTION_DOT = .181E-5
MEAN_MOTION_DDOT = 0

CCSDS_OMM_VERS = 2.0
CREATION_DATE  = 
ORIGINATOR     = 

OBJECT_NAME    = SDA_1671
OBJECT_ID      = 2025-230H
CENTER_NAME    = EARTH
REF_FRAME      = TEME
TIME_SYSTEM    = UTC
MEAN_ELEMENT_THEORY = SGP/SGP4

EPOCH          = 2025-11-04T19:04:54.342624
MEAN_MOTION    = 13.85361551
ECCENTRICITY   = .0005027
INCLINATION    = 81.3021
RA_OF_ASC_NODE = 59.7824
ARG_OF_PERICENTER = 101.4537
MEAN_ANOMALY   = 258.7185

EPHEMERIS_TYPE = 0
CLASSIFICATION_TYPE = U
NORAD_CAT_ID   = 65981
ELEMENT_SET_NO = 999
REV_AT_EPOCH   = 275
BSTAR          = .17523E-3
MEAN_MOTION_DOT = .211E-5
MEAN_MOTION_DDOT = 0

CCSDS_OMM_VERS = 2.0
CREATION_DATE  = 
ORIGINATOR     = 

OBJECT_NAME    = SDA_1672
OBJECT_ID      = 2025-230J
CENTER_NAME    = EARTH
REF_FRAME      = TEME
TIME_SYSTEM    = UTC
MEAN_ELEMENT_THEORY = SGP/SGP4

EPOCH          = 2025-11-04T19:13:16.889952
MEAN_MOTION    = 13.84954450
ECCENTRICITY   = .0004303
INCLINATION    = 81.3028
RA_OF_ASC_NODE = 59.7929
ARG_OF_PERICENTER = 74.9187
MEAN_ANOMALY   = 285.2446

EPHEMERIS_TYPE = 0
CLASSIFICATION_TYPE = U
NORAD_CAT_ID   = 65982
ELEMENT_SET_NO = 999
REV_AT_EPOCH   = 275
BSTAR          = .16142E-3
MEAN_MOTION_DOT = .194E-5
MEAN_MOTION_DDOT = 0

CCSDS_OMM_VERS = 2.0
CREATION_DATE  = 
ORIGINATOR     = 

OBJECT_NAME    = SDA_1673
OBJECT_ID      = 2025-230K
CENTER_NAME    = EARTH
REF_FRAME      = TEME
TIME_SYSTEM    = UTC
MEAN_ELEMENT_THEORY = SGP/SGP4

EPOCH          = 2025-11-04T19:00:57.964320
MEAN_MOTION    = 13.85554176
ECCENTRICITY   = .0005109
INCLINATION    = 81.3026
RA_OF_ASC_NODE = 59.7831
ARG_OF_PERICENTER = 111.7375
MEAN_ANOMALY   = 248.4327

EPHEMERIS_TYPE = 0
CLASSIFICATION_TYPE = U
NORAD_CAT_ID   = 65983
ELEMENT_SET_NO = 999
REV_AT_EPOCH   = 275
BSTAR          = .16325E-3
MEAN_MOTION_DOT = .198E-5
MEAN_MOTION_DDOT = 0

CCSDS_OMM_VERS = 2.0
CREATION_DATE  = 
ORIGINATOR     = 

OBJECT_NAME    = SDA_1674
OBJECT_ID      = 2025-230L
CENTER_NAME    = EARTH
REF_FRAME      = TEME
TIME_SYSTEM    = UTC
MEAN_ELEMENT_THEORY = SGP/SGP4

EPOCH          = 2025-11-04T19:04:12.599328
MEAN_MOTION    = 13.85396365
ECCENTRICITY   = .0004974
INCLINATION    = 81.3018
RA_OF_ASC_NODE = 59.7811
ARG_OF_PERICENTER = 103.3263
MEAN_ANOMALY   = 256.8449

EPHEMERIS_TYPE = 0
CLASSIFICATION_TYPE = U
NORAD_CAT_ID   = 65984
ELEMENT_SET_NO = 999
REV_AT_EPOCH   = 275
BSTAR          = .19209E-3
MEAN_MOTION_DOT = .231E-5
MEAN_MOTION_DDOT = 0

CCSDS_OMM_VERS = 2.0
CREATION_DATE  = 
ORIGINATOR     = 

OBJECT_NAME    = SDA_1675
OBJECT_ID      = 2025-230M
CENTER_NAME    = EARTH
REF_FRAME      = TEME
TIME_SYSTEM    = UTC
MEAN_ELEMENT_THEORY = SGP/SGP4

EPOCH          = 2025-11-04T19:18:00.167040
MEAN_MOTION    = 13.84724697
ECCENTRICITY   = .0003471
INCLINATION    = 81.2994
RA_OF_ASC_NODE = 59.7903
ARG_OF_PERICENTER = 64.1936
MEAN_ANOMALY   = 295.9578

EPHEMERIS_TYPE = 0
CLASSIFICATION_TYPE = U
NORAD_CAT_ID   = 65985
ELEMENT_SET_NO = 999
REV_AT_EPOCH   = 275
BSTAR          = .15339E-3
MEAN_MOTION_DOT = .184E-5
MEAN_MOTION_DDOT = 0

CCSDS_OMM_VERS = 2.0
CREATION_DATE  = 
ORIGINATOR     = 

OBJECT_NAME    = SDA_1676
OBJECT_ID      = 2025-230N
CENTER_NAME    = EARTH
REF_FRAME      = TEME
TIME_SYSTEM    = UTC
MEAN_ELEMENT_THEORY = SGP/SGP4

EPOCH          = 2025-11-04T19:21:05.762016
MEAN_MOTION    = 13.84574572
ECCENTRICITY   = .0002786
INCLINATION    = 81.3025
RA_OF_ASC_NODE = 59.7990
ARG_OF_PERICENTER = 55.9819
MEAN_ANOMALY   = 304.1602

EPHEMERIS_TYPE = 0
CLASSIFICATION_TYPE = U
NORAD_CAT_ID   = 65986
ELEMENT_SET_NO = 999
REV_AT_EPOCH   = 275
BSTAR          = .16493E-3
MEAN_MOTION_DOT = .197E-5
MEAN_MOTION_DDOT = 0

CCSDS_OMM_VERS = 2.0
CREATION_DATE  = 
ORIGINATOR     = 

OBJECT_NAME    = SDA_1677
OBJECT_ID      = 2025-230P
CENTER_NAME    = EARTH
REF_FRAME      = TEME
TIME_SYSTEM    = UTC
MEAN_ELEMENT_THEORY = SGP/SGP4

EPOCH          = 2025-11-04T19:19:19.764768
MEAN_MOTION    = 13.84659762
ECCENTRICITY   = .0003138
INCLINATION    = 81.2998
RA_OF_ASC_NODE = 59.7929
ARG_OF_PERICENTER = 60.7643
MEAN_ANOMALY   = 299.3828

EPHEMERIS_TYPE = 0
CLASSIFICATION_TYPE = U
NORAD_CAT_ID   = 65987
ELEMENT_SET_NO = 999
REV_AT_EPOCH   = 275
BSTAR          = .16029E-3
MEAN_MOTION_DOT = .192E-5
MEAN_MOTION_DDOT = 0

CCSDS_OMM_VERS = 2.0
CREATION_DATE  = 
ORIGINATOR     = 

OBJECT_NAME    = SDA_1678
OBJECT_ID      = 2025-230Q
CENTER_NAME    = EARTH
REF_FRAME      = TEME
TIME_SYSTEM    = UTC
MEAN_ELEMENT_THEORY = SGP/SGP4

EPOCH          = 2025-11-04T19:01:52.105152
MEAN_MOTION    = 13.85509708
ECCENTRICITY   = .0005021
INCLINATION    = 81.3030
RA_OF_ASC_NODE = 59.7856
ARG_OF_PERICENTER = 109.5620
MEAN_ANOMALY   = 250.6080

EPHEMERIS_TYPE = 0
CLASSIFICATION_TYPE = U
NORAD_CAT_ID   = 65988
ELEMENT_SET_NO = 999
REV_AT_EPOCH   = 275
BSTAR          = .16396E-3
MEAN_MOTION_DOT = .199E-5
MEAN_MOTION_DDOT = 0

CCSDS_OMM_VERS = 2.0
CREATION_DATE  = 
ORIGINATOR     = 

OBJECT_NAME    = SDA_1679
OBJECT_ID      = 2025-230R
CENTER_NAME    = EARTH
REF_FRAME      = TEME
TIME_SYSTEM    = UTC
MEAN_ELEMENT_THEORY = SGP/SGP4

EPOCH          = 2025-11-04T19:06:00.405792
MEAN_MOTION    = 13.85309100
ECCENTRICITY   = .0005161
INCLINATION    = 81.3027
RA_OF_ASC_NODE = 59.7898
ARG_OF_PERICENTER = 98.4371
MEAN_ANOMALY   = 261.7371

EPHEMERIS_TYPE = 0
CLASSIFICATION_TYPE = U
NORAD_CAT_ID   = 65989
ELEMENT_SET_NO = 999
REV_AT_EPOCH   = 275
BSTAR          = .19576E-3
MEAN_MOTION_DOT = .234E-5
MEAN_MOTION_DDOT = 0

