SDA_1668                
1 65978U 25230E   25308.79356681  .00000199  00000+0  16430-3 0  9995
2 65978  81.3014  59.7793 0004972 107.2107 252.9595 13.85467907  2755
SDA_1669                
1 65979U 25230F   25308.79688804  .00000188  00000+0  15501-3 0  9997
2 65979  81.3016  59.7843 0005080  94.6631 265.5107 13.85234758  2751
SDA_1670                
1 65980U 25230G   25308.80293034  .00000181  00000+0  14989-3 0  9990
2 65980  81.2994  59.7887 0003641  69.5437 290.6111 13.84811538  2751
SDA_1671                
1 65981U 25230H   25308.79507341  .00000211  00000+0  17523-3 0  9999
2 65981  81.3021  59.7824 0005027 101.4537 258.7185 13.85361551  2754
SDA_1672                
1 65982U 25230J   25308.80088993  .00000194  00000+0  16142-3 0  9995
2 65982  81.3028  59.7929 0004303  74.9187 285.2446 13.84954450  2759
SDA_1673                
1 65983U 25230K   25308.79233755  .00000198  00000+0  16325-3 0  9999
2 65983  81.3026  59.7831 0005109 111.7375 248.4327 13.85554176  2755
SDA_1674                
1 65984U 25230L   25308.79459027  .00000231  00000+0  19209-3 0  9994
2 65984  81.3018  59.7811 0004974 103.3263 256.8449 13.85396365  2759
SDA_1675                
1 65985U 25230M   25308.80416860  .00000184  00000+0  15339-3 0  9992
2 65985  81.2994  59.7903 0003471  64.1936 295.9578 13.84724697  2755
SDA_1676                
1 65986U 25230N   25308.80631669  .00000197  00000+0  16493-3 0  9995
2 65986  81.3025  59.7990 0002786  55.9819 304.1602 13.84574572  2750
SDA_1677                
1 65987U 25230P   25308.80508987  .00000192  00000+0  16029-3 0  9992
2 65987  81.2998  59.7929 0003138  60.7643 299.3828 13.84659762  2752
SDA_1678                
1 65988U 25230Q   25308.79296418  .00000199  00000+0  16396-3 0  9998
2 65988  81.3030  59.7856 0005021 109.5620 250.6080 13.85509708  2755
SDA_1679                
1 65989U 25230R   25308.79583803  .00000234  00000+0  19576-3 0  9999
2 65989  81.3027  59.7898 0005161  98.4371 261.7371 13.85309100  2752
